GLOBALSTAR M065         
1 31571U 07020A   23327.87155567 -.00000048  00000+0  31067-3 0  9999
2 31571  51.9865 165.0889 0010786 120.4636 343.5325 12.61958552761276
GLOBALSTAR M069         
1 31573U 07020C   23327.93025847 -.00000082  00000+0  12056-3 0  9990
2 31573  51.9931 121.0020 0001266 109.9665  62.6372 12.62261090762400
GLOBALSTAR M072         
1 31574U 07020D   23328.16225331 -.00000090  00000+0  77591-4 0  9992
2 31574  52.0072 216.0530 0001408  71.3288  93.6774 12.62268602760865
GLOBALSTAR M071         
1 31576U 07020F   23327.78415892 -.00000088  00000+0  86484-4 0  9992
2 31576  52.0044 126.4525 0001000  95.4679  11.6281 12.62272984423578
GLOBALSTAR M063 [+]     
1 26081U 00008A   23327.91657424 -.00000076  00000+0  97982-4 0  9992
2 26081  51.9928 176.0631 0003652 311.5293 154.2561 11.86147929 89781
GLOBALSTAR M062 [-]     
1 26082U 00008B   23327.36554605 -.00000027  00000+0  50832-3 0  9997
2 26082  51.9863 337.2742 0006894 333.4765 131.6550 12.43421663425484
GLOBALSTAR M060 [-]     
1 26083U 00008C   23328.07928403 -.00000113  00000+0 -22088-3 0  9997
2 26083  52.0005 214.3893 0004503  51.1436  96.5248 12.17620903 82965
GLOBALSTAR M064 [-]     
1 26084U 00008D   23328.10253482 -.00000065  00000+0  26068-3 0  9997
2 26084  52.0034 281.1361 0002128  41.4785 318.6209 11.88511887 99308
